IRIDIUM 116             
1 43072U 17083C   24120.52855446  .00000086  00000+0  23540-4 0  9994
2 43072  86.3917 287.4168 0001988  94.3007 265.8416 14.34218188332568
IRIDIUM 130             
1 43073U 17083D   24120.84568047  .00000173  00000+0  54739-4 0  9999
2 43073  86.3924 287.4840 0002157  88.0035 272.1408 14.34219826332555
IRIDIUM 151             
1 43074U 17083E   24120.54123951  .00000168  00000+0  52880-4 0  9997
2 43074  86.3918 287.4515 0002390 100.5394 259.6071 14.34218770332536
IRIDIUM 134             
1 43075U 17083F   24120.85836766  .00000218  00000+0  70726-4 0  9992
2 43075  86.3920 287.3164 0002035  87.0534 273.0895 14.34219417332544
IRIDIUM 137             
1 43076U 17083G   24120.87105315  .00000152  00000+0  47054-4 0  9999
2 43076  86.3921 287.3882 0002037 103.7514 256.3908 14.34216917332618
IRIDIUM 141             
1 43077U 17083H   24120.86471235  .00000015  00000+0 -16083-5 0  9994
2 43077  86.3913 287.2658 0002114  92.6108 267.5330 14.34217705332610
IRIDIUM 153             
1 43078U 17083J   24120.81689388  .00000592  00000+0  20442-3 0  9991
2 43078  86.3957 255.7222 0002599  90.4500 269.6994 14.34214574333717
IRIDIUM 131             
1 43079U 17083K   24120.50318498  .00000051  00000+0  11144-4 0  9999
2 43079  86.3921 287.5512 0002094  96.8287 263.3147 14.34217595332497
